OBJECT_NAME,OBJECT_ID,EPOCH,MEAN_MOTION,ECCENTRICITY,INCLINATION,RA_OF_ASC_NODE,ARG_OF_PERICENTER,MEAN_ANOMALY,EPHEMERIS_TYPE,CLASSIFICATION_TYPE,NORAD_CAT_ID,ELEMENT_SET_NO,REV_AT_EPOCH,BSTAR,MEAN_MOTION_DOT,MEAN_MOTION_DDOT
IRIDIUM 156,2018-061H,2026-07-02T14:32:42.402048,14.34219288,.0002038,86.3944,50.2808,88.0557,272.0873,0,U,43576,999,41558,.65666E-4,.204E-5,0
IRIDIUM 164,2018-061J,2026-07-02T17:26:14.467776,14.34217620,.0002147,86.3945,50.2707,89.6686,270.4756,0,U,43577,999,41564,-.10221E-5,.17E-6,0
IRIDIUM 159,2018-061K,2026-07-02T08:18:14.493312,14.34217774,.0002217,86.3946,50.3666,84.8141,275.3308,0,U,43578,999,41555,.71396E-5,.4E-6,0
IRIDIUM 180,2019-002A,2026-07-02T16:39:50.937984,14.34217487,.000212,86.3975,347.1142,89.6194,270.5244,0,U,43922,999,39121,-.7414E-5,-.1E-7,0
IRIDIUM 176,2019-002B,2026-07-02T17:22:01.364160,14.72235550,.0002377,86.6100,347.0429,88.1548,271.9942,0,U,43923,999,40153,.13841E-3,.897E-5,0
IRIDIUM 168,2019-002C,2026-07-02T16:30:42.566688,14.34218199,.0002223,86.3983,347.1943,90.0790,270.0660,0,U,43924,999,39119,.44008E-4,.143E-5,0
IRIDIUM 173,2019-002D,2026-07-02T17:52:54.945696,14.34217484,.0002033,86.3975,347.0590,89.5959,270.5470,0,U,43925,999,39118,-.57341E-5,.4E-7,0
IRIDIUM 169,2019-002E,2026-07-02T11:38:19.862304,14.38610890,.0001641,86.4218,18.7960,89.3531,270.7855,0,U,43926,999,39242,.97476E-4,.318E-5,0
IRIDIUM 172,2019-002F,2026-07-02T11:01:54.954048,14.34217648,.000222,86.3978,347.1860,89.3387,270.8063,0,U,43927,999,39115,.19837E-4,.75E-6,0
IRIDIUM 175,2019-002G,2026-07-02T17:35:33.170784,14.43621622,.0004365,86.4519,284.0229,140.7149,219.4370,0,U,43928,999,40122,.10752E-3,.384E-5,0
IRIDIUM 171,2019-002H,2026-07-02T17:16:22.937088,14.34217740,.0002141,86.3987,347.3850,94.1062,266.0379,0,U,43929,999,39118,.37269E-5,.3E-6,0
IRIDIUM 170,2019-002J,2026-07-02T17:30:54.866880,14.72236070,.0002421,86.6099,347.0426,84.8396,275.3097,0,U,43930,999,40154,.13833E-3,.897E-5,0
IRIDIUM 167,2019-002K,2026-07-02T17:07:14.880288,14.34217974,.0002076,86.3979,347.1024,98.2861,261.8570,0,U,43931,999,39118,.11388E-4,.52E-6,0
IRIDIUM 181,2023-068S,2026-07-02T03:37:20.076384,14.43314274,.00024377,86.4484,50.5342,86.2138,273.9341,0,U,56726,999,16459,.95509739E-4,.342E-5,0
IRIDIUM 177,2023-068T,2026-07-02T16:03:20.386080,14.80012076,.0002053,86.1979,321.4396,91.4923,268.6533,0,U,56727,999,16865,.16358E-3,.1263E-4,0
IRIDIUM 174,2023-068U,2026-07-02T17:13:05.920896,14.72244216,.0002234,86.6107,347.1967,80.2313,279.9157,0,U,56728,999,16830,.14747E-3,.954E-5,0
IRIDIUM 178,2023-068V,2026-07-02T06:03:16.971264,14.80047592,.0002488,86.6532,19.0630,85.4914,274.6592,0,U,56729,999,16859,.14776E-3,.1144E-4,0
IRIDIUM 179,2023-068W,2026-07-02T02:40:56.210880,14.80064129,.00024353,86.6765,28.1459,87.7658,272.3842,0,U,56730,999,16857,.13333304E-3,.1035E-4,0
